NORAD_CAT_ID,OBJECT_NAME,OBJECT_TYPE,EPOCH,MEAN_MOTION,ECCENTRICITY,INCLINATION,RA_OF_ASC_NODE,ARG_OF_PERICENTER,MEAN_ANOMALY,BSTAR,MEAN_MOTION_DOT,MEAN_MOTION_DDOT,TLE_LINE0,TLE_LINE1,TLE_LINE2,SEMIMAJOR_AXIS,PERIOD,APOGEE,PERIGEE,DECAYED
53132.0,STARLINK-4063,PAYLOAD,2024-08-07 11:08:19,15.08842254,0.0001505,53.2166,254.3663,93.4275,266.689,9.1055e-05,1.162e-05,0.0,0 STARLINK-4063,1 53132U 22083A   24220.46411981  .00001162  00000-0  91055-4 0  9997,2 53132  53.2166 254.3663 0001505  93.4275 266.6890 15.08842254113774,6917.873,95.437,540.78,538.697,0.0
53132.0,STARLINK-4063,PAYLOAD,2024-08-08 07:48:21,15.08836549,0.0001533,53.2169,250.4987,82.8955,277.2212,0.00019959,2.89e-05,0.0,0 STARLINK-4063,1 53132U 22083A   24221.32524439  .00002890  00000-0  19959-3 0  9997,2 53132  53.2169 250.4987 0001533  82.8955 277.2212 15.08836549113902,6917.891,95.438,540.816,538.695,0.0
53132.0,STARLINK-4063,PAYLOAD,2024-08-09 09:14:29,15.08901573,0.0001214,53.2166,245.7385,72.1304,287.982,-0.00081665,-0.00013283,0.0,0 STARLINK-4063,1 53132U 22083A   24222.38506713 -.00013283  00000-0 -81665-3 0  9992,2 53132  53.2166 245.7385 0001214  72.1304 287.9820 15.08901573114694,6917.692,95.434,540.397,538.717,0.0
53132.0,STARLINK-4063,PAYLOAD,2024-08-09 18:46:49,15.08855086,0.0001429,53.2166,243.9539,85.9277,274.1879,-1.3897e-05,-5.09e-06,0.0,0 STARLINK-4063,1 53132U 22083A   24222.78251622 -.00000509  00000-0 -13897-4 0  9992,2 53132  53.2166 243.9539 0001429  85.9277 274.1879 15.08855086114750,6917.834,95.437,540.688,538.711,0.0
53132.0,STARLINK-4063,PAYLOAD,2024-08-10 01:08:23,15.08836219,0.0001717,53.2171,242.765,87.2008,272.9181,1.6511e-05,-2.5e-07,0.0,0 STARLINK-4063,1 53132U 22083A   24223.04748979 -.00000025  00000-0  16511-4 0  9996,2 53132  53.2171 242.7650 0001717  87.2008 272.9181 15.08836219114797,6917.892,95.438,540.945,538.569,0.0
53132.0,STARLINK-4063,PAYLOAD,2024-08-10 07:29:55,15.08839966,0.0001499,53.2171,241.5747,96.666,263.4503,3.7031e-05,3.01e-06,0.0,0 STARLINK-4063,1 53132U 22083A   24223.31244578  .00000301  00000-0  37031-4 0  9998,2 53132  53.2171 241.5747 0001499  96.6660 263.4503 15.08839966114207,6917.88,95.438,540.782,538.709,0.0
53132.0,STARLINK-4063,PAYLOAD,2024-08-11 00:59:09,15.08841325,0.0001578,53.2179,238.306,94.1847,265.9325,0.00012498,1.702e-05,0.0,0 STARLINK-4063,1 53132U 22083A   24224.04108338  .00001702  00000-0  12498-3 0  9997,2 53132  53.2179 238.3060 0001578  94.1847 265.9325 15.08841325114947,6917.876,95.437,540.833,538.65,0.0
53132.0,STARLINK-4063,PAYLOAD,2024-08-11 18:28:23,15.08849967,0.0001483,53.216,235.0327,95.5007,264.6154,0.00020788,3.023e-05,0.0,0 STARLINK-4063,1 53132U 22083A   24224.76972031  .00003023  00000-0  20788-3 0  9994,2 53132  53.2160 235.0327 0001483  95.5007 264.6154 15.08849967114424,6917.85,95.437,540.741,538.689,0.0
53132.0,STARLINK-4063,PAYLOAD,2024-08-12 04:00:42,15.08850905,0.0001649,53.2164,233.2486,95.025,265.093,-2.4669e-05,-6.81e-06,0.0,0 STARLINK-4063,1 53132U 22083A   24225.16715828 -.00000681  00000-0 -24669-4 0  9990,2 53132  53.2164 233.2486 0001649  95.0250 265.0930 15.08850905115111,6917.847,95.437,540.853,538.571,0.0
53132.0,STARLINK-4063,PAYLOAD,2024-08-12 07:11:29,15.08841537,0.0001542,53.2153,232.6548,92.6182,267.4987,0.00017543,2.505e-05,0.0,0 STARLINK-4063,1 53132U 22083A   24225.29964395  .00002505  00000-0  17543-3 0  9996,2 53132  53.2153 232.6548 0001542  92.6182 267.4987 15.08841537115131,6917.876,95.437,540.807,538.674,0.0
53132.0,STARLINK-4063,PAYLOAD,2024-08-13 05:26:53,15.08830647,0.0001419,53.2151,228.4908,105.2181,254.8968,-0.00010495,-1.957e-05,0.0,0 STARLINK-4063,1 53132U 22083A   24226.22700804 -.00001957  00000-0 -10495-3 0  9994,2 53132  53.2151 228.4908 0001419 105.2181 254.8968 15.08830647115279,6917.909,95.438,540.756,538.792,0.0
53132.0,STARLINK-4063,PAYLOAD,2024-08-13 07:02:16,15.08826097,0.0001457,53.2157,228.1935,98.1972,261.9186,-0.0001806,-3.16e-05,0.0,0 STARLINK-4063,1 53132U 22083A   24226.29325113 -.00003160  00000-0 -18060-3 0  9991,2 53132  53.2157 228.1935 0001457  98.1972 261.9186 15.08826097114658,6917.923,95.438,540.796,538.78,0.0
53132.0,STARLINK-4063,PAYLOAD,2024-08-14 06:53:03,15.08841398,0.0001399,53.2149,223.7351,97.8208,262.2943,0.00025923,3.84e-05,0.0,0 STARLINK-4063,1 53132U 22083A   24227.28685117  .00003840  00000-0  25923-3 0  9993,2 53132  53.2149 223.7351 0001399  97.8208 262.2943 15.08841398115438,6917.876,95.437,540.709,538.773,0.0
53132.0,STARLINK-4063,PAYLOAD,2024-08-14 16:25:22,15.08846867,0.0001447,53.2153,221.951,98.8275,261.2881,0.00031983,4.807e-05,0.0,0 STARLINK-4063,1 53132U 22083A   24227.68428907  .00004807  00000-0  31983-3 0  9996,2 53132  53.2153 221.9510 0001447  98.8275 261.2881 15.08846867114861,6917.859,95.437,540.725,538.723,0.0
53132.0,STARLINK-4063,PAYLOAD,2024-08-15 05:08:28,15.08835891,0.0001787,53.2165,219.5779,112.8729,247.2452,0.00022612,3.312e-05,0.0,0 STARLINK-4063,1 53132U 22083A   24228.21421640  .00003312  00000-0  22612-3 0  9992,2 53132  53.2165 219.5779 0001787 112.8729 247.2452 15.08835891115574,6917.893,95.438,540.994,538.522,0.0
53132.0,STARLINK-4063,PAYLOAD,2024-08-15 06:43:51,15.08829815,0.0001683,53.2164,219.2775,107.0603,253.0573,0.00021865,3.193e-05,0.0,0 STARLINK-4063,1 53132U 22083A   24228.28045905  .00003193  00000-0  21865-3 0  9991,2 53132  53.2164 219.2775 0001683 107.0603 253.0573 15.08829815114957,6917.912,95.438,540.941,538.612,0.0
53132.0,STARLINK-4063,PAYLOAD,2024-08-15 16:16:09,15.08841158,0.0001496,53.2155,217.4909,96.7285,263.3877,0.00024671,3.641e-05,0.0,0 STARLINK-4063,1 53132U 22083A   24228.67789335  .00003641  00000-0  24671-3 0  9992,2 53132  53.2155 217.4909 0001496  96.7285 263.3877 15.08841158115011,6917.877,95.437,540.777,538.707,0.0
53132.0,STARLINK-4063,PAYLOAD,2024-08-16 06:34:38,15.08843272,0.0001629,53.2158,214.8147,94.5648,265.553,-6.0767e-06,-3.85e-06,0.0,0 STARLINK-4063,1 53132U 22083A   24229.27405293 -.00000385  00000-0 -60767-5 0  9999,2 53132  53.2158 214.8147 0001629  94.5648 265.5530 15.08843272115734,6917.87,95.437,540.862,538.608,0.0
53132.0,STARLINK-4063,PAYLOAD,2024-08-17 08:00:48,15.08845651,0.0001445,53.2152,210.0559,86.8359,273.2798,0.00011105,1.48e-05,0.0,0 STARLINK-4063,1 53132U 22083A   24230.33389096  .00001480  00000-0  11105-3 0  9995,2 53132  53.2152 210.0559 0001445  86.8359 273.2798 15.08845651115894,6917.863,95.437,540.728,538.728,0.0
53132.0,STARLINK-4063,PAYLOAD,2024-08-18 04:40:49,15.08839453,0.0001537,53.2158,206.1843,80.9177,279.1989,4.0769e-05,3.61e-06,0.0,0 STARLINK-4063,1 53132U 22083A   24231.19501448  .00000361  00000-0  40769-4 0  9993,2 53132  53.2158 206.1843 0001537  80.9177 279.1989 15.08839453116023,6917.882,95.438,540.81,538.684,0.0
53132.0,STARLINK-4063,PAYLOAD,2024-08-18 07:51:35,15.0884053,0.0001505,53.2169,205.5906,83.2877,276.8286,5.891e-05,6.5e-06,0.0,0 STARLINK-4063,1 53132U 22083A   24231.32749579  .00000650  00000-0  58910-4 0  9995,2 53132  53.2169 205.5906 0001505  83.2877 276.8286 15.08840530115410,6917.879,95.438,540.785,538.703,0.0
53132.0,STARLINK-4063,PAYLOAD,2024-08-19 04:31:35,15.08845539,0.0001587,53.2175,201.7276,98.0497,262.0676,8.6068e-05,1.082e-05,0.0,0 STARLINK-4063,1 53132U 22083A   24232.18860984  .00001082  00000-0  86068-4 0  9999,2 53132  53.2175 201.7276 0001587  98.0497 262.0676 15.08845539115545,6917.863,95.437,540.826,538.631,0.0
53132.0,STARLINK-4063,PAYLOAD,2024-08-20 04:22:23,15.08837232,0.0001317,53.2176,197.2652,91.9172,268.1971,5.1703e-05,5.35e-06,0.0,0 STARLINK-4063,1 53132U 22083A   24233.18221447  .00000535  00000-0  51703-4 0  9995,2 53132  53.2176 197.2652 0001317  91.9172 268.1971 15.08837232116329,6917.889,95.438,540.665,538.843,0.0
53132.0,STARLINK-4063,PAYLOAD,2024-08-20 07:33:09,15.08835133,0.0001345,53.2177,196.6721,96.5359,263.5786,8.8543e-06,-1.47e-06,0.0,0 STARLINK-4063,1 53132U 22083A   24233.31469689 -.00000147  00000-0  88543-5 0  9995,2 53132  53.2177 196.6721 0001345  96.5359 263.5786 15.08835133115712,6917.895,95.438,540.691,538.83,0.0
53132.0,STARLINK-4063,PAYLOAD,2024-08-21 04:13:10,15.0884378,0.0001295,53.2172,192.8072,88.7708,271.3432,7.2675e-06,-1.72e-06,0.0,0 STARLINK-4063,1 53132U 22083A   24234.17581226 -.00000172  00000-0  72675-5 0  9999,2 53132  53.2172 192.8072 0001295  88.7708 271.3432 15.08843780115845,6917.869,95.437,540.63,538.838,0.0
53132.0,STARLINK-4063,PAYLOAD,2024-08-21 21:42:25,15.0883351,0.0001265,53.2173,189.5367,86.9482,273.1655,7.4259e-05,8.94e-06,0.0,0 STARLINK-4063,1 53132U 22083A   24234.90445672  .00000894  00000-0  74259-4 0  9993,2 53132  53.2173 189.5367 0001265  86.9482 273.1655 15.08833510116581,6917.9,95.438,540.64,538.89,0.0
